#dP2023  9 16  0  0  0.00000000      96 __u+U ITR00 EXT  IAC
## 2279 518400.00000000   900.00000000 60203 0.0000000000000
+  117   C06C07C08C09C10C11C12C13C14C16C19C20C21C22C23C24C25
+        C26C27C28C29C30C32C33C34C35C36C37C38C39C40C41C42C43
+        C44C45C46E02E03E04E05E07E08E09E10E11E12E13E14E15E18
+        E19E21E24E25E26E27E30E31E33E34E36G01G02G03G04G05G06
+        G07G08G10G11G12G13G14G15G16G17G18G19G20G21G22G23G24
+        G25G26G27G28G29G30G31G32J02J03J04R01R02R03R04R05R07
+        R08R09R11R12R13R14R15R16R17R18R19R20R21R22R24  0  0
++        10 10 12 11 10 10 10 11 11 10  8  9  9  8  8  8  8
++         8  7  8  8  9 10  9 10  6  8  9  9 11  9  9  9  7
++         8  7  8  8  8  8  7  7  6  8 10  8  8  7  8  7  7
++         7  6  8 10  9  7  7  7  8  7  9  7  7  7  8  7  8
++         8  7  7  6  9  9  6  8  7  6  7  7  7  7  6  6  7
++         9  7  6  9  8  6  6  7  8 10  9  7  8  8  8  8  7
++        10  8  8  8  9  8  7  7  8  7 10 10  7  7  8  0  0
%c M  cc GPS ccc cccc cccc cccc cccc ccccc ccccc ccccc ccccc
%c cc cc ccc ccc cccc cccc cccc cccc ccccc ccccc ccccc ccccc
%f  0.0000000  0.000000000  0.00000000000  0.000000000000000
%f  0.0000000  0.000000000  0.00000000000  0.000000000000000
%i    0    0    0    0      0      0      0      0         0
%i    0    0    0    0      0      0      0      0         0
/* IAC                                ULTRA-RAPID PREDICTION
/* S/V CLOCKS ARE ALIGNED TO GNSS TIME                      
/* G:C1WC2W R:C1PC2P E:C1XC5X C:C2IC6I J:C1CC2S             
/* PCV:IGS20_2274 OL/AL:FES2004  NONE     YN ORB:CoN CLK:CoN
*  2023 09 16  8 15  0.00000000
PC06   -329.868271  32342.825687  27224.740275     37.414827
PC07 -16582.317742  28039.532215 -26772.522399    -12.601274
PC08 -14148.513265  39550.466945   1785.504640    342.943139
PC09   5262.996192  35989.054487  22231.430837    159.785649
PC10  -8552.056695  28514.471230 -29676.988280   -180.062386
PC11   9218.408498  21131.903554 -15632.168024    834.750766
PC12  -9168.415509  12402.649406 -23216.046414    936.193625
PC13  -8922.264675  40256.015893   8168.429230    352.638431
PC14    -97.609177  16604.494398  22441.696071    415.309402
PC16  -4274.867054  29380.413744  30304.463557    -82.475386
PC19 -10448.512312 -12380.785865 -22710.067369   -970.413966
PC20   8730.578743 -17898.557233 -19536.777894    279.486463
PC21 -24344.106502  13005.661235   4202.746122   -970.904946
PC22 -24704.738429    522.565050 -13002.198048   -305.451806
PC23  15339.044613   6706.173344 -22316.883308   -870.445016
PC24  -6331.006640  26917.330352   3644.514347    397.550781
PC25   7442.875554  23046.976344 -13851.478293    212.375573
PC26 -14691.413620  15571.871183  17868.824547   -178.413482
PC27  16608.125167  -6033.092026  21581.386667    199.941851
PC28  23926.766279   8987.491344  11197.132765    150.025296
PC29 -17911.007082 -19897.526052   7882.408521    175.210208
PC30    -60.184027 -18296.127113  21060.683903     -4.999750
PC32  24279.651621 -13127.877232  -4072.661643   -528.590356
PC33  10386.019679  12423.268110  22719.495744   -967.835262
PC34   1502.275690  18928.571651 -20464.890339    260.598628
PC35 -24271.276886  -8128.012301 -11093.059829    545.416845
PC36  -6395.726962 -23742.113522  13233.133961   -223.743610
PC37  15270.872523 -14458.946748 -18341.437641   -828.782261
PC38 -17655.773753  37625.004396  -6479.572030    105.106840
PC39  -7828.481881  25593.280373  32681.401307     -4.811710
PC40 -23192.195493  21530.703773 -27969.332930    -36.692083
PC41  24374.957801    -11.384127  13624.866838   -878.179250
PC42 -10251.952323  18037.299242  18707.894356   -546.063686
PC43  17221.831172  20189.643806  -8664.688440     39.951910
PC44 -16577.912015   6642.883091 -21449.408929    232.990027
PC45 -15352.658608  -6120.920567  22491.029774    -26.094185
PC46   5559.397646 -27260.652829  -2440.463517    -84.663282
PE02  22582.700458  -7895.665158 -17437.981531     63.110654
PE03  28783.488081    304.064396  -6881.160135    -56.398502
PE04 -16680.543064  12112.863450  21243.739429   -213.219051
PE05  24175.462966  12590.110539  11536.955779     18.838043
PE07  -4976.529899 -17521.057402 -23335.013306    -75.203160
PE08  17080.509823 -11779.468983 -21112.157778   -147.012103
PE09   4825.438554  17371.562886  23469.498530   -158.204112
PE10  -1272.163601  25303.499642 -15301.897684   -564.119809
PE11   6202.412498  28361.936449  -5787.898795   2937.527431
PE12  -8005.732132  18755.736466 -21461.990219   -699.629832
PE13  -5778.556585 -28298.823467   6489.057906    -19.648085
PE14 -20728.216804  12798.601802 -20899.609316    341.825875
PE15   8190.896480 -18375.932189  21716.886716    -53.646628
PE18   6704.580079 -14393.192862  18606.349351    536.787165
PE19 -29169.348692  -2212.140976   4518.637680  -1620.990158
PE21 -13236.955614 -10341.735811  24377.771803   -552.912510
PE24  -4796.840285  23699.342847 -17066.887573   -324.335228
PE25  12959.179432  10661.129376 -24372.207648     -1.885258
PE26 -16446.192858 -20987.944274 -12864.530997    223.960073
PE27   4234.499264 -23515.177257  17485.979319   -151.223376
PE30  19308.749242 -22444.512394    -36.164896   -504.178721
PE31 -19021.715403  22674.852107   -350.704700     -5.211520
PE33 -17307.031960  -2879.570247 -23843.321346     -0.473175
PE34  17164.755255   2106.655134  24013.017042    -67.313587
PE36  16163.837598  21522.106738  12313.426959   -116.880581
PG01  15294.166375   1908.893086  21342.525860    165.380314
PG02  17600.726955   8167.877085  18717.329092   -553.364814
PG03  20435.131769  -8735.777096  14313.100389   -132.517986
PG04  25134.241028   -354.759375  -8758.752402    157.443822
PG05 -14547.358637  -5711.513592 -21671.070133   -142.914244
PG06  -5037.955070 -25580.721026   4870.944562    549.313944
PG07   8778.096797 -15863.524109 -18771.796381     65.907686
PG08  26073.453796   5811.302770  -1984.390468   -142.514452
PG10  -8032.320803  21941.789108  12494.087095    -53.591241
PG11 -12342.400380 -21985.267509  -8418.693610   -371.164733
PG12 -20289.729275   4205.914419  16302.642346   -425.324121
PG13 -21283.476043 -13671.492883  -8642.123411    573.117746
PG14  11338.580160 -22050.649979   9309.491594    186.393337
PG15 -26534.401565  -2630.830497  -1699.113372     77.998412
PG16  10430.149034  11187.225730 -22017.668860   -453.434731
PG17   3871.685734 -14654.988805  22244.904538    723.747359
PG18  -7255.027051  17849.250072 -18196.782261   -418.918420
PG19  -5848.103495 -16201.939536  20109.179580    372.181905
PG20  -6909.781392 -16103.850031 -19971.781269    411.628238
PG21  17956.535818  11435.937615  16944.640826    148.802702
PG22   5946.047799 -20919.900269  15892.423885    120.850096
PG23 -16642.789048  20572.366492    383.149948     69.093842
PG24 -17732.993474  -6029.855899  18604.995642   -320.836378
PG25 -19635.562139  16524.845087   5958.540172    468.009002
PG26   2545.212266  19092.564174 -18262.997265    228.244869
PG27  19536.732665  12996.950821 -13085.776352    -40.285646
PG28   4596.064753  25284.177078   6692.849612    -10.505964
PG29 -20093.095699   5956.981898 -16425.804275   -609.338844
PG30   1816.690718 -23257.377802 -12330.983556   -487.335082
PG31  10230.431607  24026.763164  -3558.782782   -223.439026
PG32   1692.137560  15677.645664  21574.849783   -558.687293
PJ02 -35324.294959  23078.826860   5014.178499     -4.100547
PJ03 -21345.474463  20961.196543 -25118.520554     -2.863321
PJ04 -27361.836897  31439.787292  12510.823782     70.636390
PR01 -15711.216205  11723.031763  16320.853386     65.754823
PR02   2786.338990  10481.294620  23125.867548    -22.415222
PR03  19477.016081   3706.304399  16126.415427     85.315275
PR04  25060.453530  -4788.158570    472.706599    203.014676
PR05  17229.252447 -10721.824866 -15468.751470    119.098467
PR07 -19980.862451  -3292.855508 -15442.284004     64.775734
PR08 -24974.115340   5093.191224   -156.089314    -72.564328
PR09    948.964341 -22830.780220  11273.860199    142.525839
PR11 -12679.072178   7232.600056  20937.014304   -164.899587
PR12 -10432.418234  22375.643423   6419.384381     31.337592
PR13  -2569.311449  23579.020312  -9394.038712    -39.254604
PR14   8034.105117  10070.426094 -22002.750253     25.267118
PR15  12969.962782  -8477.252399 -20236.733066     86.163857
PR16  10316.626420 -22330.670338  -6669.996555     18.734056
PR17  18346.955687  16613.110929   6071.269204     17.655942
PR18  15724.572674   4752.226443  19544.869990    102.177707
PR19   6481.640062  -8373.955264  23207.085213   -247.427533
PR20  -9437.792780 -20271.298739  12255.485508   -100.124851
PR21 -18356.414773 -16296.497957  -7006.078577    -38.409283
PR22 -15406.634069  -4134.477900 -19876.754372     84.355535
PR24  10432.671780  20169.935864 -11575.730449    -24.567358
EOF
